[
  {
    "name": "STARLINK-3150",
    "noradId": "49452",
    "line1": "1 49452U 21104AW  26176.97215971  .00000010  00000+0  18713-4 0  9999",
    "line2": "2 49452  53.1591  92.9148 0001190  92.4978 267.6150 15.08837121255121"
  },
  {
    "name": "STARLINK-3826",
    "noradId": "52347",
    "line1": "1 52347U 22045S   26177.16668980  .00088663  00000+0  46466-2 0  9999",
    "line2": "2 52347  53.1605  71.8941 0002033  70.2693  58.7450 15.15038046  5689"
  },
  {
    "name": "STARLINK-3877",
    "noradId": "52355",
    "line1": "1 52355U 22045AA  26176.83335647 -.00020656  00000+0 -12830-2 0  9990",
    "line2": "2 52355  53.1599  73.4998 0001478  94.1257 126.8291 15.08849568  5820"
  },
  {
    "name": "STARLINK-3801",
    "noradId": "52356",
    "line1": "1 52356U 22045AB  26176.83335647  .00021850  00000+0  11493-2 0  9990",
    "line2": "2 52356  53.1598  73.3765 0000710  95.8533 263.7646 15.15608227  5822"
  },
  {
    "name": "STARLINK-3830",
    "noradId": "52363",
    "line1": "1 52363U 22045AJ  26176.70365257  .00133533  00000+0  80222-2 0  9992",
    "line2": "2 52363  53.1584  74.0765 0001748  67.8441 292.2736 15.09867673232095"
  },
  {
    "name": "STARLINK-5137",
    "noradId": "53975",
    "line1": "1 53975U 22125M   26176.96009275 -.00011806  00000+0 -72403-3 0  9997",
    "line2": "2 53975  53.1608  92.5065 0001159  77.6804 282.4317 15.08883164205748"
  }
]