{
  "schema": "int-telemetry-real-tle-snapshot/v1",
  "source": "celestrak",
  "group": "STARLINK",
  "format": "celestrak-gp-json",
  "source_url": "https://celestrak.org/NORAD/elements/gp.php?NAME=STARLINK&FORMAT=JSON",
  "downloaded_at": "2026-07-01T09:45:20.184Z",
  "generated_at": "2026-07-01T09:45:20.328Z",
  "fingerprint": "b8e2cd48",
  "shell_id": "starlink-real-53.2deg-545km",
  "catalog_count": 10658,
  "shell_count": 1056,
  "selected_count": 64,
  "mean_altitude_km": 544.89,
  "mean_inclination_deg": 53.1617,
  "mean_mean_motion_rev_per_day": 15.09493346,
  "layout": {
    "planes": 8,
    "satellites_per_plane": 8,
    "selection_strategy": "target-shell-raan-clusters-even-slot-sampling",
    "raan_cluster_threshold_deg": 1.5,
    "target_inclination_deg": 53,
    "target_altitude_km": 550,
    "selected_shell_key": "53.0deg-550km",
    "target_shell_distance": 21.03
  },
  "satellites": [
    {
      "satellite_id": "P02-S05",
      "norad_id": 52363,
      "satellite_name": "STARLINK-3830",
      "cospar_id": "2022-045AJ",
      "shell_id": "starlink-real-53.2deg-545km",
      "plane_id": 1,
      "slot_id": 4,
      "epoch": "2026-06-25T16:53:15.582048",
      "inclination": 53.1584,
      "raan": 74.07650000000001,
      "eccentricity": 0.0001748,
      "argument_of_perigee": 67.84410000000003,
      "mean_anomaly": 292.2736,
      "mean_motion": 15.09867673,
      "bstar": 0.0080222,
      "status": "active",
      "raw_omm": {
        "OBJECT_NAME": "STARLINK-3830",
        "OBJECT_ID": "2022-045AJ",
        "EPOCH": "2026-06-25T16:53:15.582048",
        "MEAN_MOTION": 15.09867673,
        "ECCENTRICITY": 0.0001748,
        "INCLINATION": 53.1584,
        "RA_OF_ASC_NODE": 74.0765,
        "ARG_OF_PERICENTER": 67.8441,
        "MEAN_ANOMALY": 292.2736,
        "EPHEMERIS_TYPE": 0,
        "CLASSIFICATION_TYPE": "U",
        "NORAD_CAT_ID": 52363,
        "ELEMENT_SET_NO": 999,
        "REV_AT_EPOCH": 23209,
        "BSTAR": 0.0080222,
        "MEAN_MOTION_DOT": 0.00133533,
        "MEAN_MOTION_DDOT": 0
      },
      "source": "celestrak",
      "source_url": "https://celestrak.org/NORAD/elements/gp.php?NAME=STARLINK&FORMAT=JSON",
      "catalog_fingerprint": "b8e2cd48"
    },
    {
      "satellite_id": "P02-S06",
      "norad_id": 52347,
      "satellite_name": "STARLINK-3826",
      "cospar_id": "2022-045S",
      "shell_id": "starlink-real-53.2deg-545km",
      "plane_id": 1,
      "slot_id": 5,
      "epoch": "2026-06-26T04:00:01.998720",
      "inclination": 53.1605,
      "raan": 71.89409999999998,
      "eccentricity": 0.0002033,
      "argument_of_perigee": 70.26929999999999,
      "mean_anomaly": 58.745000000000005,
      "mean_motion": 15.15038046,
      "bstar": 0.0046466,
      "status": "active",
      "raw_omm": {
        "OBJECT_NAME": "STARLINK-3826",
        "OBJECT_ID": "2022-045S",
        "EPOCH": "2026-06-26T04:00:01.998720",
        "MEAN_MOTION": 15.15038046,
        "ECCENTRICITY": 0.0002033,
        "INCLINATION": 53.1605,
        "RA_OF_ASC_NODE": 71.8941,
        "ARG_OF_PERICENTER": 70.2693,
        "MEAN_ANOMALY": 58.745,
        "EPHEMERIS_TYPE": 0,
        "CLASSIFICATION_TYPE": "U",
        "NORAD_CAT_ID": 52347,
        "ELEMENT_SET_NO": 999,
        "REV_AT_EPOCH": 568,
        "BSTAR": 0.0046466,
        "MEAN_MOTION_DOT": 0.00088663,
        "MEAN_MOTION_DDOT": 0
      },
      "source": "celestrak",
      "source_url": "https://celestrak.org/NORAD/elements/gp.php?NAME=STARLINK&FORMAT=JSON",
      "catalog_fingerprint": "b8e2cd48"
    },
    {
      "satellite_id": "P02-S07",
      "norad_id": 52355,
      "satellite_name": "STARLINK-3877",
      "cospar_id": "2022-045AA",
      "shell_id": "starlink-real-53.2deg-545km",
      "plane_id": 1,
      "slot_id": 6,
      "epoch": "2026-06-25T20:00:01.999008",
      "inclination": 53.1599,
      "raan": 73.4998,
      "eccentricity": 0.0001478,
      "argument_of_perigee": 94.1257,
      "mean_anomaly": 126.82909999999998,
      "mean_motion": 15.08849568,
      "bstar": -0.001283,
      "status": "active",
      "raw_omm": {
        "OBJECT_NAME": "STARLINK-3877",
        "OBJECT_ID": "2022-045AA",
        "EPOCH": "2026-06-25T20:00:01.999008",
        "MEAN_MOTION": 15.08849568,
        "ECCENTRICITY": 0.0001478,
        "INCLINATION": 53.1599,
        "RA_OF_ASC_NODE": 73.4998,
        "ARG_OF_PERICENTER": 94.1257,
        "MEAN_ANOMALY": 126.8291,
        "EPHEMERIS_TYPE": 0,
        "CLASSIFICATION_TYPE": "U",
        "NORAD_CAT_ID": 52355,
        "ELEMENT_SET_NO": 999,
        "REV_AT_EPOCH": 582,
        "BSTAR": -0.001283,
        "MEAN_MOTION_DOT": -0.00020656,
        "MEAN_MOTION_DDOT": 0
      },
      "source": "celestrak",
      "source_url": "https://celestrak.org/NORAD/elements/gp.php?NAME=STARLINK&FORMAT=JSON",
      "catalog_fingerprint": "b8e2cd48"
    },
    {
      "satellite_id": "P02-S08",
      "norad_id": 52356,
      "satellite_name": "STARLINK-3801",
      "cospar_id": "2022-045AB",
      "shell_id": "starlink-real-53.2deg-545km",
      "plane_id": 1,
      "slot_id": 7,
      "epoch": "2026-06-25T20:00:01.999008",
      "inclination": 53.1598,
      "raan": 73.37649999999996,
      "eccentricity": 0.000071,
      "argument_of_perigee": 95.85329999999999,
      "mean_anomaly": 263.7646,
      "mean_motion": 15.15608227,
      "bstar": 0.0011493,
      "status": "active",
      "raw_omm": {
        "OBJECT_NAME": "STARLINK-3801",
        "OBJECT_ID": "2022-045AB",
        "EPOCH": "2026-06-25T20:00:01.999008",
        "MEAN_MOTION": 15.15608227,
        "ECCENTRICITY": 0.000071,
        "INCLINATION": 53.1598,
        "RA_OF_ASC_NODE": 73.3765,
        "ARG_OF_PERICENTER": 95.8533,
        "MEAN_ANOMALY": 263.7646,
        "EPHEMERIS_TYPE": 0,
        "CLASSIFICATION_TYPE": "U",
        "NORAD_CAT_ID": 52356,
        "ELEMENT_SET_NO": 999,
        "REV_AT_EPOCH": 582,
        "BSTAR": 0.0011493,
        "MEAN_MOTION_DOT": 0.0002185,
        "MEAN_MOTION_DDOT": 0
      },
      "source": "celestrak",
      "source_url": "https://celestrak.org/NORAD/elements/gp.php?NAME=STARLINK&FORMAT=JSON",
      "catalog_fingerprint": "b8e2cd48"
    },
    {
      "satellite_id": "P03-S01",
      "norad_id": 53975,
      "satellite_name": "STARLINK-5137",
      "cospar_id": "2022-125M",
      "shell_id": "starlink-real-53.2deg-545km",
      "plane_id": 2,
      "slot_id": 0,
      "epoch": "2026-06-25T23:02:32.013600",
      "inclination": 53.1608,
      "raan": 92.50650000000002,
      "eccentricity": 0.0001159,
      "argument_of_perigee": 77.68040000000002,
      "mean_anomaly": 282.4317,
      "mean_motion": 15.08883164,
      "bstar": -0.00072403,
      "status": "active",
      "raw_omm": {
        "OBJECT_NAME": "STARLINK-5137",
        "OBJECT_ID": "2022-125M",
        "EPOCH": "2026-06-25T23:02:32.013600",
        "MEAN_MOTION": 15.08883164,
        "ECCENTRICITY": 0.0001159,
        "INCLINATION": 53.1608,
        "RA_OF_ASC_NODE": 92.5065,
        "ARG_OF_PERICENTER": 77.6804,
        "MEAN_ANOMALY": 282.4317,
        "EPHEMERIS_TYPE": 0,
        "CLASSIFICATION_TYPE": "U",
        "NORAD_CAT_ID": 53975,
        "ELEMENT_SET_NO": 999,
        "REV_AT_EPOCH": 20574,
        "BSTAR": -0.00072403,
        "MEAN_MOTION_DOT": -0.00011806,
        "MEAN_MOTION_DDOT": 0
      },
      "source": "celestrak",
      "source_url": "https://celestrak.org/NORAD/elements/gp.php?NAME=STARLINK&FORMAT=JSON",
      "catalog_fingerprint": "b8e2cd48"
    },
    {
      "satellite_id": "P03-S02",
      "norad_id": 49452,
      "satellite_name": "STARLINK-3150",
      "cospar_id": "2021-104AW",
      "shell_id": "starlink-real-53.2deg-545km",
      "plane_id": 2,
      "slot_id": 1,
      "epoch": "2026-06-25T23:19:54.598944",
      "inclination": 53.1591,
      "raan": 92.91480000000001,
      "eccentricity": 0.000119,
      "argument_of_perigee": 92.49779999999998,
      "mean_anomaly": 267.615,
      "mean_motion": 15.08837121,
      "bstar": 0.000018713,
      "status": "active",
      "raw_omm": {
        "OBJECT_NAME": "STARLINK-3150",
        "OBJECT_ID": "2021-104AW",
        "EPOCH": "2026-06-25T23:19:54.598944",
        "MEAN_MOTION": 15.08837121,
        "ECCENTRICITY": 0.000119,
        "INCLINATION": 53.1591,
        "RA_OF_ASC_NODE": 92.9148,
        "ARG_OF_PERICENTER": 92.4978,
        "MEAN_ANOMALY": 267.615,
        "EPHEMERIS_TYPE": 0,
        "CLASSIFICATION_TYPE": "U",
        "NORAD_CAT_ID": 49452,
        "ELEMENT_SET_NO": 999,
        "REV_AT_EPOCH": 25512,
        "BSTAR": 0.000018713,
        "MEAN_MOTION_DOT": 1e-7,
        "MEAN_MOTION_DDOT": 0
      },
      "source": "celestrak",
      "source_url": "https://celestrak.org/NORAD/elements/gp.php?NAME=STARLINK&FORMAT=JSON",
      "catalog_fingerprint": "b8e2cd48"
    }
  ]
}